{"type": "FeatureCollection", "features": [ {"type": "Feature", "properties": {"norad_id": 66474, "name": "STARLINK-35620", "group": "last-30-days", "lat": -32.97333434965401, "lon": 26.616752561336092, "alt_km": 414.49000276131665, "timestamp": "2025-12-12T18:57:42.884507+00:00", "meta": {"OBJECT_NAME": "STARLINK-35620", "OBJECT_ID": "2025-262U", "EPOCH": "2025-12-11T07:38:34.341792", "MEAN_MOTION": 15.50718811, "ECCENTRICITY": 0.00019374, "INCLINATION": 43.0007, "RA_OF_ASC_NODE": 79.3535, "ARG_OF_PERICENTER": 275.2448, "MEAN_ANOMALY": 84.8191, "EPHEMERIS_TYPE": 0, "CLASSIFICATION_TYPE": "U", "NORAD_CAT_ID": 66474, "ELEMENT_SET_NO": 999, "REV_AT_EPOCH": 534, "BSTAR": 0.0036220445, "MEAN_MOTION_DOT": 0.00219297, "MEAN_MOTION_DDOT": 0}, "tle": {"line1": "1 66474U 25262U   25345.31845303  .00219297  00000+0  36220-2 0  9994", "line2": "2 66474  43.0007  79.3535 0001937 275.2448  84.8191 15.50718811  5347"}}, "geometry": {"type": "Point", "coordinates": [26.616752561336092, -32.97333434965401]}}, {"type": "Feature", "properties": {"norad_id": 66475, "name": "STARLINK-35538", "group": "last-30-days", "lat": -35.092383848476985, "lon": 21.81524513711205, "alt_km": 421.1340759397208, "timestamp": "2025-12-12T18:57:42.884518+00:00", "meta": {"OBJECT_NAME": "STARLINK-35538", "OBJECT_ID": "2025-262V", "EPOCH": "2025-12-12T05:17:12.814080", "MEAN_MOTION": 15.49531988, "ECCENTRICITY": 0.00074148, "INCLINATION": 43.0002, "RA_OF_ASC_NODE": 74.0815, "ARG_OF_PERICENTER": 203.649, "MEAN_ANOMALY": 156.403, "EPHEMERIS_TYPE": 0, "CLASSIFICATION_TYPE": "U", "NORAD_CAT_ID": 66475, "ELEMENT_SET_NO": 999, "REV_AT_EPOCH": 548, "BSTAR": 0.0020630867, "MEAN_MOTION_DOT": 0.00118164, "MEAN_MOTION_DDOT": 0}, "tle": {"line1": "1 66475U 25262V   25346.22028720  .00118164  00000+0  20631-2 0  9992", "line2": "2 66475  43.0002  74.0815 0007414 203.6490 156.4030 15.49531988  5483"}}, "geometry": {"type": "Point", "coordinates": [21.81524513711205, -35.092383848476985]}}, {"type": "Feature", "properties": {"norad_id": 66476, "name": "STARLINK-35372", "group": "last-30-days", "lat": -31.69597823046695, "lon": 29.2290062606703, "alt_km": 415.66115679287213, "timestamp": "2025-12-12T18:57:42.884529+00:00", "meta": {"OBJECT_NAME": "STARLINK-35372", "OBJECT_ID": "2025-262W", "EPOCH": "2025-12-11T15:21:21.149568", "MEAN_MOTION": 15.50643698, "ECCENTRICITY": 0.00013866, "INCLINATION": 43.0002, "RA_OF_ASC_NODE": 77.4654, "ARG_OF_PERICENTER": 284.004, "MEAN_ANOMALY": 76.0666, "EPHEMERIS_TYPE": 0, "CLASSIFICATION_TYPE": "U", "NORAD_CAT_ID": 66476, "ELEMENT_SET_NO": 999, "REV_AT_EPOCH": 528, "BSTAR": 0.0028408412, "MEAN_MOTION_DOT": 0.00170386, "MEAN_MOTION_DDOT": 0}, "tle": {"line1": "1 66476U 25262W   25345.63982812  .00170386  00000+0  28408-2 0  9992", "line2": "2 66476  43.0002  77.4654 0001386 284.0040  76.0666 15.50643698  5282"}}, "geometry": {"type": "Point", "coordinates": [29.2290062606703, -31.69597823046695]}}, {"type": "Feature", "properties": {"norad_id": 66477, "name": "STARLINK-35354", "group": "last-30-days", "lat": -29.329099331937478, "lon": 33.64077882899124, "alt_km": 415.21522458860727, "timestamp": "2025-12-12T18:57:42.884540+00:00", "meta": {"OBJECT_NAME": "STARLINK-35354", "OBJECT_ID": "2025-262X", "EPOCH": "2025-12-11T07:36:34.693344", "MEAN_MOTION": 15.50668561, "ECCENTRICITY": 0.00016097, "INCLINATION": 43.0001, "RA_OF_ASC_NODE": 79.3431, "ARG_OF_PERICENTER": 267.1783, "MEAN_ANOMALY": 92.8893, "EPHEMERIS_TYPE": 0, "CLASSIFICATION_TYPE": "U", "NORAD_CAT_ID": 66477, "ELEMENT_SET_NO": 999, "REV_AT_EPOCH": 534, "BSTAR": 0.0026959533, "MEAN_MOTION_DOT": 0.0016164, "MEAN_MOTION_DDOT": 0}, "tle": {"line1": "1 66477U 25262X   25345.31706821  .00161640  00000+0  26960-2 0  9996", "line2": "2 66477  43.0001  79.3431 0001609 267.1783  92.8893 15.50668561  5341"}}, "geometry": {"type": "Point", "coordinates": [33.64077882899124, -29.329099331937478]}}, {"type": "Feature", "properties": {"norad_id": 66478, "name": "STARLINK-35283", "group": "last-30-days", "lat": -28.05226729981992, "lon": 35.83505696588701, "alt_km": 414.82633964800334, "timestamp": "2025-12-12T18:57:42.884567+00:00", "meta": {"OBJECT_NAME": "STARLINK-35283", "OBJECT_ID": "2025-262Y", "EPOCH": "2025-12-11T07:36:04.808448", "MEAN_MOTION": 15.50692325, "ECCENTRICITY": 0.00017473, "INCLINATION": 43, "RA_OF_ASC_NODE": 79.3398, "ARG_OF_PERICENTER": 260.3131, "MEAN_ANOMALY": 99.7532, "EPHEMERIS_TYPE": 0, "CLASSIFICATION_TYPE": "U", "NORAD_CAT_ID": 66478, "ELEMENT_SET_NO": 999, "REV_AT_EPOCH": 534, "BSTAR": 0.0032392192, "MEAN_MOTION_DOT": 0.00195292, "MEAN_MOTION_DDOT": 0}, "tle": {"line1": "1 66478U 25262Y   25345.31672232  .00195292  00000+0  32392-2 0  9991", "line2": "2 66478  43.0000  79.3398 0001747 260.3131  99.7532 15.50692325  5349"}}, "geometry": {"type": "Point", "coordinates": [35.83505696588701, -28.05226729981992]}}, {"type": "Feature", "properties": {"norad_id": 66479, "name": "STARLINK-35581", "group": "last-30-days", "lat": -30.897305004199794, "lon": 30.77298656451391, "alt_km": 416.0401971151123, "timestamp": "2025-12-12T18:57:42.884578+00:00", "meta": {"OBJECT_NAME": "STARLINK-35581", "OBJECT_ID": "2025-262Z", "EPOCH": "2025-12-11T15:20:51.362304", "MEAN_MOTION": 15.506173, "ECCENTRICITY": 0.00015898, "INCLINATION": 43.0004, "RA_OF_ASC_NODE": 77.461, "ARG_OF_PERICENTER": 271.2867, "MEAN_ANOMALY": 88.7811, "EPHEMERIS_TYPE": 0, "CLASSIFICATION_TYPE": "U", "NORAD_CAT_ID": 66479, "ELEMENT_SET_NO": 999, "REV_AT_EPOCH": 539, "BSTAR": 0.0018832674, "MEAN_MOTION_DOT": 0.00111886, "MEAN_MOTION_DDOT": 0}, "tle": {"line1": "1 66479U 25262Z   25345.63948336  .00111886  00000+0  18833-2 0  9999", "line2": "2 66479  43.0004  77.4610 0001589 271.2867  88.7811 15.50617300  5394"}}, "geometry": {"type": "Point", "coordinates": [30.77298656451391, -30.897305004199794]}}, {"type": "Feature", "properties": {"norad_id": 66480, "name": "STARLINK-35670", "group": "last-30-days", "lat": -28.053641661665946, "lon": 35.834263354645216, "alt_km": 416.37234811753115, "timestamp": "2025-12-12T18:57:42.884589+00:00", "meta": {"OBJECT_NAME": "STARLINK-35670", "OBJECT_ID": "2025-262AA", "EPOCH": "2025-12-12T06:46:57.841824", "MEAN_MOTION": 15.50638281, "ECCENTRICITY": 0.00020323, "INCLINATION": 43.0005, "RA_OF_ASC_NODE": 73.685, "ARG_OF_PERICENTER": 249.0627, "MEAN_ANOMALY": 111.0015, "EPHEMERIS_TYPE": 0, "CLASSIFICATION_TYPE": "U", "NORAD_CAT_ID": 66480, "ELEMENT_SET_NO": 999, "REV_AT_EPOCH": 549, "BSTAR": 0.0026026827, "MEAN_MOTION_DOT": 0.00155752, "MEAN_MOTION_DDOT": 0}, "tle": {"line1": "1 66480U 25262AA  25346.28261391  .00155752  00000+0  26027-2 0  9996", "line2": "2 66480  43.0005  73.6850 0002032 249.0627 111.0015 15.50638281  5490"}}, "geometry": {"type": "Point", "coordinates": [35.834263354645216, -28.053641661665946]}}, {"type": "Feature", "properties": {"norad_id": 66481, "name": "STARLINK-35698", "group": "last-30-days", "lat": -26.662472588933586, "lon": 38.10336318956239, "alt_km": 415.6985075672874, "timestamp": "2025-12-12T18:57:42.884599+00:00", "meta": {"OBJECT_NAME": "STARLINK-35698", "OBJECT_ID": "2025-262AB", "EPOCH": "2025-12-11T15:18:52.907040", "MEAN_MOTION": 15.50619658, "ECCENTRICITY": 0.00014945, "INCLINATION": 43.0004, "RA_OF_ASC_NODE": 77.4498, "ARG_OF_PERICENTER": 285.2045, "MEAN_ANOMALY": 74.865, "EPHEMERIS_TYPE": 0, "CLASSIFICATION_TYPE": "U", "NORAD_CAT_ID": 66481, "ELEMENT_SET_NO": 999, "REV_AT_EPOCH": 539, "BSTAR": 0.0020280216, "MEAN_MOTION_DOT": 0.00120658, "MEAN_MOTION_DDOT": 0}, "tle": {"line1": "1 66481U 25262AB  25345.63811235  .00120658  00000+0  20280-2 0  9995", "line2": "2 66481  43.0004  77.4498 0001494 285.2045  74.8650 15.50619658  5394"}}, "geometry": {"type": "Point", "coordinates": [38.10336318956239, -26.662472588933586]}}, {"type": "Feature", "properties": {"norad_id": 66482, "name": "STARLINK-35648", "group": "last-30-days", "lat": -25.926794134961863, "lon": 39.26022895969573, "alt_km": 416.59536283860325, "timestamp": "2025-12-12T18:57:42.884610+00:00", "meta": {"OBJECT_NAME": "STARLINK-35648", "OBJECT_ID": "2025-262AC", "EPOCH": "2025-12-12T06:45:58.650048", "MEAN_MOTION": 15.50610553, "ECCENTRICITY": 0.00017135, "INCLINATION": 42.9998, "RA_OF_ASC_NODE": 73.6807, "ARG_OF_PERICENTER": 250.6059, "MEAN_ANOMALY": 109.4616, "EPHEMERIS_TYPE": 0, "CLASSIFICATION_TYPE": "U", "NORAD_CAT_ID": 66482, "ELEMENT_SET_NO": 999, "REV_AT_EPOCH": 533, "BSTAR": 0.0017097531, "MEAN_MOTION_DOT": 0.00101385, "MEAN_MOTION_DDOT": 0}, "tle": {"line1": "1 66482U 25262AC  25346.28192882  .00101385  00000+0  17098-2 0  9997", "line2": "2 66482  42.9998  73.6807 0001713 250.6059 109.4616 15.50610553  5338"}}, "geometry": {"type": "Point", "coordinates": [39.26022895969573, -25.926794134961863]}}, {"type": "Feature", "properties": {"norad_id": 66483, "name": "STARLINK-35654", "group": "last-30-days", "lat": -24.796706645066365, "lon": 40.979880065467356, "alt_km": 416.5744747568897, "timestamp": "2025-12-12T18:57:42.884620+00:00", "meta": {"OBJECT_NAME": "STARLINK-35654", "OBJECT_ID": "2025-262AD", "EPOCH": "2025-12-12T06:45:28.958688", "MEAN_MOTION": 15.50613559, "ECCENTRICITY": 0.00015246, "INCLINATION": 42.9996, "RA_OF_ASC_NODE": 73.6772, "ARG_OF_PERICENTER": 251.1786, "MEAN_ANOMALY": 108.8909, "EPHEMERIS_TYPE": 0, "CLASSIFICATION_TYPE": "U", "NORAD_CAT_ID": 66483, "ELEMENT_SET_NO": 999, "REV_AT_EPOCH": 549, "BSTAR": 0.0017219808, "MEAN_MOTION_DOT": 0.00102132, "MEAN_MOTION_DDOT": 0}, "tle": {"line1": "1 66483U 25262AD  25346.28158517  .00102132  00000+0  17220-2 0  9993", "line2": "2 66483  42.9996  73.6772 0001524 251.1786 108.8909 15.50613559  5495"}}, "geometry": {"type": "Point", "coordinates": [40.979880065467356, -24.796706645066365]}}]}